CARTOSAT-2C             
1 41599U 16040A   25331.18699459  .00000508  00000+0  27298-4 0  9998
2 41599  97.4789  28.5951 0011285 116.7863 243.4527 15.19282965523042
LAPAN-A3                
1 41603U 16040E   25331.20931319  .00004563  00000+0  15276-3 0  9998
2 41603  97.1432 329.3330 0011575  29.0682 331.1202 15.31372205523888
BIROS                   
1 41604U 16040F   25330.32757597  .00138935  00000+0  62515-3 0  9994
2 41604  97.0713   1.1799 0001714 195.5493 164.5725 15.83705792526123
M3MSAT                  
1 41605U 16040G   25331.01986956  .00319737  43101-4  73935-3 0  9998
2 41605  97.0564 359.8048 0001802 196.8518 163.2700 15.97190705526124
GAOFEN-3                
1 41727U 16049A   25331.19430222  .00000105  00000+0  45022-4 0  9990
2 41727  98.4043 337.0173 0001602  81.2851 278.8520 14.42228996489537
QSS (MOZI)              
1 41731U 16051A   25331.19183987  .00172138  00000+0  10150-2 0  9999
2 41731  97.2970 256.2978 0009850  93.6142 266.6251 15.77622549518503
PRATHAM                 
1 41783U 16059A   25330.94305622  .00000946  00000+0  17664-3 0  9993
2 41783  97.8271 331.8297 0032300 140.6944 219.6614 14.66788711489861
ALSAT 1N                
1 41789U 16059G   25331.10043466  .00001206  00000+0  21346-3 0  9995
2 41789  97.8026 338.5272 0027465 112.9388 247.4721 14.68815262490338
CAS-2T & KS-1Q          
1 41847U 16066G   25331.17253774  .00001208  00000+0  17878-3 0  9997
2 41847  98.4053  44.0644 0344445  22.3291 339.2493 14.44078140475631
YUNHAI-1 01             
1 41857U 16068A   25331.19161914  .00000368  00000+0  15164-3 0  9998
2 41857  98.5894 339.0354 0004468 270.8796  89.1876 14.32628097472901
RESOURCESAT-2A          
1 41877U 16074A   25331.21332684  .00000190  00000+0  10671-3 0  9995
2 41877  98.7774  41.1584 0001252 329.2874  30.8230 14.21611306465601
TANSAT                  
1 41898U 16081A   25331.19284525  .00000409  00000+0  96036-4 0  9996
2 41898  98.5273 320.6229 0019855 210.5681 149.4362 14.59759036475151
JILIN-1 03              
1 41914U 17002B   25331.17962887  .00013722  00000+0  39691-3 0  9996
2 41914  97.2001 336.9067 0006655 163.1756 196.9710 15.35705890490790
CARTOSAT-2D             
1 41948U 17008A   25331.15523549 -.00000028  00000+0  18681-5 0  9999
2 41948  97.4408  28.8877 0004374 224.0982 135.9904 15.19264319486904
CARTOSAT-2E             
1 42767U 17036C   25331.17156713  .00006576  00000+0  31501-3 0  9994
2 42767  97.4575  28.9590 0002842 303.3548  56.7414 15.19267335467477
D-SAT                   
1 42794U 17036AF  25330.91025906  .00007651  00000+0  39327-3 0  9993
2 42794  97.5360 306.1711 0089035 140.4994 220.2772 15.13293594460221
IRIDIUM 113             
1 42803U 17039A   25331.19073073  .00000140  00000+0  43041-4 0  9991
2 42803  86.3987  46.5940 0002051  92.5473 267.5957 14.34217825442239
NORSAT 2                
1 42828U 17042D   25330.98734311  .00013122  00000+0  67367-3 0  9997
2 42828  97.3904 143.5235 0011456  43.0003 317.2123 15.16580912457034
TECHNOSAT               
1 42829U 17042E   25330.95332954  .00004110  00000+0  30676-3 0  9992
2 42829  97.4019 131.8447 0019461  65.3012 295.0237 15.03219982456309
FLYING LAPTOP           
1 42831U 17042G   25331.19045770  .00003828  00000+0  31369-3 0  9994
2 42831  97.4195 130.5295 0014581  98.1457 262.1422 14.99751054456169
WNISAT 1R               
1 42835U 17042L   25330.97692772  .00003698  00000+0  29969-3 0  9991
2 42835  97.4167 130.3459 0012552 107.0710 253.1890 15.00222826456173
LEMUR-2-GREENBERG       
1 42837U 17042N   25330.95910447  .00018007  00000+0  75139-3 0  9993
2 42837  97.3715 148.7075 0010511   8.0815 352.0590 15.23672369457510
LEMUR-2-FURIAUS         
1 42840U 17042R   25330.98648147  .00017015  00000+0  75669-3 0  9991
2 42840  97.3706 147.2902 0010095  60.1853 300.0386 15.21520817457373
CORVUS BC2              
1 42846U 17042X   25330.94328199  .00005593  00000+0  40233-3 0  9992
2 42846  97.3849 135.6597 0014723  84.3088 275.9817 15.04528505456638
CORVUS BC1              
1 42847U 17042Y   25330.96642372  .00004482  00000+0  32137-3 0  9997
2 42847  97.3866 136.3500 0013446  62.9962 297.2636 15.04764580456668
VRSS-2                  
1 42954U 17060A   25331.17216241  .00001241  00000+0  16727-3 0  9999
2 42954  97.6807  12.7375 0018172  44.2092 316.0569 14.80740445438550
MOHAMMED VI-A           
1 43005U 17070A   25331.20427788 -.00000144  00000+0 -13251-4 0  9995
2 43005  97.9603  41.4090 0000944  98.5644 261.5673 14.77037295434162
FENGYUN 3D              
1 43010U 17072A   25331.16269215  .00000151  00000+0  93046-4 0  9993
2 43010  98.9871 297.2414 0000481 271.0965  89.0155 14.19676821416323
CZ-4C R/B               
1 43012U 17072C   25330.88961141  .00000498  00000+0  10730-3 0  9992
2 43012  98.5754  67.4248 0123865  55.3445 305.9355 14.58537089427140
NOAA 20 (JPSS-1)        
1 43013U 17073A   25331.13107956  .00000124  00000+0  79878-4 0  9994
2 43013  98.7576 267.6003 0001959 109.7625 250.3763 14.19519376415803
MAKERSAT 0              
1 43016U 17073D   25331.08810999  .00025599  00000+0  88015-3 0  9994
2 43016  97.4893 208.0294 0127500 266.9663  91.6977 15.22553782435612
RADFXSAT (FOX-1B)       
1 43017U 17073E   25330.39419438  .00013546  00000+0  64622-3 0  9998
2 43017  97.4950 196.9659 0161438 307.0126  51.6422 15.08334216434776
JILIN-1 04              
1 43022U 17074A   25331.20843135  .00014235  00000+0  40393-3 0  9996
2 43022  97.4810  71.4871 0004398 185.1893 174.9306 15.36318369443195
JILIN-1 05              
1 43023U 17074B   25331.21262038  .00007705  00000+0  26151-3 0  9995
2 43023  97.4833  70.2239 0004606 213.1223 146.9730 15.30787616443073
JILIN-1 06              
1 43024U 17074C   25331.17755670  .00008449  00000+0  28782-3 0  9998
2 43024  97.4776  67.3885 0006258 230.7306 129.3380 15.30627850442906
IRIDIUM 116             
1 43072U 17083C   25331.16537278  .00000360  00000+0  12158-3 0  9996
2 43072  86.3981  46.4428 0002316 105.0200 255.1252 14.34219709415216
IRIDIUM 130             
1 43073U 17083D   25331.20342711  .00000365  00000+0  12340-3 0  9996
2 43073  86.3991  46.6828 0002075 104.9725 255.1701 14.34219671415167
LKW-2                   
1 43080U 17084A   25331.10991045  .00007275  00000+0  30505-3 0  9994
2 43080  97.1496  15.4312 0002958 138.3658 221.7806 15.23775874440897
SUPERVIEW-1 03          
1 43099U 18002A   25331.17705749  .00020799  00000+0  64840-3 0  9991
2 43099  97.3311  52.2398 0055609 184.5428 175.5317 15.31725563437367
CARTOSAT-2F             
1 43111U 18004A   25331.20455406  .00001191  00000+0  59698-4 0  9995
2 43111  97.4341  29.0916 0000672 237.0449 123.0721 15.19266516436664
LKW-3                   
1 43146U 18006A   25331.21545527  .00013390  00000+0  46140-3 0  9991
2 43146  97.6375 119.9521 0002417 316.4487  43.6562 15.30144955437773
ASNARO-2                
1 43152U 18007A   25330.67961990  .00000335  00000+0  17470-4 0  9994
2 43152  97.4013 335.7203 0001563  91.7620 268.3795 15.22425231436600
JILIN-1 07              
1 43159U 18008E   25331.18459126  .00009021  00000+0  30454-3 0  9999
2 43159  97.1952 351.8460 0010737  67.5753 292.6625 15.30846218434051
JILIN-1 08              
1 43160U 18008F   25331.14563881  .00009766  00000+0  33626-3 0  9991
2 43160  97.1971 351.2908 0008443  80.2116 280.0079 15.30203896434010
LEMUR-2-KADI            
1 43184U 18014E   25330.74888518  .00053933  00000+0  10051-2 0  9997
2 43184  97.4904 245.6169 0001183 305.2450  54.8690 15.48655593429389
S-NET D                 
1 43186U 18014G   25330.96010454  .00007503  00000+0  41578-3 0  9990
2 43186  97.5476 232.1787 0009114  10.3369 349.8048 15.14056819428133
S-NET B                 
1 43187U 18014H   25331.16618211  .00007022  00000+0  38957-3 0  9992
2 43187  97.5482 232.3626 0009615   4.6619 355.4700 15.14036228428168
S-NET A                 
1 43188U 18014J   25331.15814620  .00007709  00000+0  42694-3 0  9999
2 43188  97.5493 232.5283 0009565   4.9265 355.2059 15.14066360428161
S-NET C                 
1 43189U 18014K   25330.97082580  .00006979  00000+0  38719-3 0  9992
2 43189  97.5510 232.3856 0010727 357.4797   2.6379 15.14028273426688
PAZ                     
1 43215U 18020A   25331.15494160  .00002899  00000+0  14115-3 0  9992
2 43215  97.4452 336.4521 0001730  89.1525 270.9908 15.19163282430339
GOES 17                 
1 43226U 18022A   25331.18031034 -.00000163  00000+0  00000+0 0  9993
2 43226   0.4160  89.4930 0003102 178.7904 133.5036  1.00271553 28392
LKW-4                   
1 43236U 18025A   25331.00896757  .00028052  00000+0  55850-3 0  9992
2 43236  97.6182 123.7615 0002756 325.9891  34.1181 15.46883796428622
ZHUHAI-1 OVS-02         
1 43440U 18040B   25331.21270566  .00008774  00000+0  38685-3 0  9999
2 43440  97.0572 355.6236 0002063 240.2261 119.8771 15.22007295421964
ZHUHAI-1 OHS-02         
1 43441U 18040C   25331.18228434  .00012894  00000+0  43788-3 0  9991
2 43441  97.0598   2.1203 0010074 232.3597 127.6731 15.30564012 83495
GAOFEN-6                
1 43484U 18048A   25331.19984038  .00001023  00000+0  15323-3 0  9992
2 43484  97.8050  35.9866 0012971 107.4574 252.8056 14.76636521403588
LUOJIA-1 01             
1 43485U 18048B   25331.21031315  .00002850  00000+0  33019-3 0  9998
2 43485  97.8304  47.6011 0010404  69.2558 290.9772 14.86217295404201
PAKTES 1A               
1 43529U 18056A   25331.21391700  .00003325  00000+0  28643-3 0  9998
2 43529  98.1003 114.6357 0022822  64.6525 295.7056 14.97882843401673
PRSS-1                  
1 43530U 18056B   25331.21599023  .00001255  00000+0  16649-3 0  9991
2 43530  97.8089  39.4684 0001204  84.8420 275.2930 14.81528437398523
HAIYANG-1C              
1 43609U 18068A   25331.19737297  .00000205  00000+0  88646-4 0  9996
2 43609  98.5451  41.1995 0010013 340.9185  19.1623 14.34188514378133
